CTC1_L_00380016-03
1 69173U 25739HT  26070.40835648  .00000000  00000+0  00000-0 0  9994
2 69173  90.0000 180.0000 0000000   0.0000   0.0000 13.16009679    19
CTC1_L_00380016-04
1 69174U 26119XB  26070.40835648  .00000000  00000+0  00000-0 0  9998
2 69174  90.0000 180.0000 0000000   0.0000  90.0000 13.16009679    19
CTC1_L_00380017-01
1 69175U 24182YZ  26070.40835648  .00000000  00000+0  00000-0 0  9997
2 69175  90.0000 192.0000 0000000   0.0000 192.0000 13.16009679    16
CTC1_L_00380017-02
1 69176U 24082BR  26070.40835648  .00000000  00000+0  00000-0 0  9997
2 69176  90.0000 192.0000 0000000   0.0000 282.0000 13.16009679    17
CTC1_L_00380017-03
1 69177U 25933OO  26070.40835648  .00000000  00000+0  00000-0 0  9994
2 69177  90.0000 192.0000 0000000   0.0000  12.0000 13.16009679    19
CTC1_L_00380017-04
1 69178U 23317HJ  26070.40835648  .00000000  00000+0  00000-0 0  9999
2 69178  90.0000 192.0000 0000000   0.0000 102.0000 13.16009679    10
CTC1_L_00380018-01
1 69179U 26029RV  26070.40835648  .00000000  00000+0  00000-0 0  9993
2 69179  90.0000 204.0000 0000000   0.0000 204.0000 13.16009679    18
CTC1_L_00380018-02
1 69180U 23842UO  26070.40835648  .00000000  00000+0  00000-0 0  9995
2 69180  90.0000 204.0000 0000000   0.0000 294.0000 13.16009679    19
CTC1_L_00380018-03
1 69181U 22902UP  26070.40835648  .00000000  00000+0  00000-0 0  9992
2 69181  90.0000 204.0000 0000000   0.0000  24.0000 13.16009679    11
CTC1_L_00380018-04
1 69182U 25212TQ  26070.40835648  .00000000  00000+0  00000-0 0  9990
2 69182  90.0000 204.0000 0000000   0.0000 114.0000 13.16009679    12
CTC1_L_00380019-01
1 69183U 25089XD  26070.40835648  .00000000  00000+0  00000-0 0  9993
2 69183  90.0000 216.0000 0000000   0.0000 216.0000 13.16009679    19
CTC1_L_00380019-02
1 69184U 24240UG  26070.40835648  .00000000  00000+0  00000-0 0  9992
2 69184  90.0000 216.0000 0000000   0.0000 306.0000 13.16009679    10
CTC1_L_00380019-03
1 69185U 22701VP  26070.40835648  .00000000  00000+0  00000-0 0  9993
2 69185  90.0000 216.0000 0000000   0.0000  36.0000 13.16009679    11
CTC1_L_00380019-04
1 69186U 24793MP  26070.40835648  .00000000  00000+0  00000-0 0  9997
2 69186  90.0000 216.0000 0000000   0.0000 126.0000 13.16009679    12
CTC1_L_00380020-01
1 69187U 25778DA  26070.40835648  .00000000  00000+0  00000-0 0  9992
2 69187  90.0000 228.0000 0000000   0.0000 228.0000 13.16009679    19
CTC1_L_00380020-02
1 69188U 24585XM  26070.40835648  .00000000  00000+0  00000-0 0  9998
2 69188  90.0000 228.0000 0000000   0.0000 318.0000 13.16009679    10
CTC1_L_00380020-03
1 69189U 25623DR  26070.40835648  .00000000  00000+0  00000-0 0  9993
2 69189  90.0000 228.0000 0000000   0.0000  48.0000 13.16009679    11
CTC1_L_00380020-04
1 69190U 25176XH  26070.40835648  .00000000  00000+0  00000-0 0  9998
2 69190  90.0000 228.0000 0000000   0.0000 138.0000 13.16009679    13
CTC1_L_00380021-01
1 69191U 24454HT  26070.40835648  .00000000  00000+0  00000-0 0  9997
2 69191  90.0000 240.0000 0000000   0.0000 240.0000 13.16009679    12
CTC1_L_00380021-02
1 69192U 24195WQ  26070.40835648  .00000000  00000+0  00000-0 0  9990
2 69192  90.0000 240.0000 0000000   0.0000 330.0000 13.16009679    13
CTC1_L_00380021-03
1 69193U 22140CC  26070.40835648  .00000000  00000+0  00000-0 0  9999
2 69193  90.0000 240.0000 0000000   0.0000  60.0000 13.16009679    14
CTC1_L_00380021-04
1 69194U 24550PW  26070.40835648  .00000000  00000+0  00000-0 0  9997
2 69194  90.0000 240.0000 0000000   0.0000 150.0000 13.16009679    15
CTC1_L_00380022-01
1 69195U 25871HB  26070.40835648  .00000000  00000+0  00000-0 0  9995
2 69195  90.0000 252.0000 0000000   0.0000 252.0000 13.16009679    12
CTC1_L_00380022-02
1 69196U 24018MU  26070.40835648  .00000000  00000+0  00000-0 0  9998
2 69196  90.0000 252.0000 0000000   0.0000 342.0000 13.16009679    13
CTC1_L_00380022-03
1 69197U 25960N   26070.40835648  .00000000  00000+0  00000-0 0  9996
2 69197  90.0000 252.0000 0000000   0.0000  72.0000 13.16009679    14
CTC1_L_00380022-04
1 69198U 22906AR  26070.40835648  .00000000  00000+0  00000-0 0  9994
2 69198  90.0000 252.0000 0000000   0.0000 162.0000 13.16009679    15
CTC1_L_00380023-01
1 69199U 25580KF  26070.40835648  .00000000  00000+0  00000-0 0  9996
2 69199  90.0000 264.0000 0000000   0.0000 264.0000 13.16009679    12
CTC1_L_00380023-02
1 69200U 23092PM  26070.40835648  .00000000  00000+0  00000-0 0  9995
2 69200  90.0000 264.0000 0000000   0.0000 354.0000 13.16009679    15
CTC1_L_00380023-03
1 69201U 25297IZ  26070.40835648  .00000000  00000+0  00000-0 0  9995
2 69201  90.0000 264.0000 0000000   0.0000  84.0000 13.16009679    16
CTC1_L_00380023-04
1 69202U 23310MA  26070.40835648  .00000000  00000+0  00000-0 0  9990
2 69202  90.0000 264.0000 0000000   0.0000 174.0000 13.16009679    17
CTC1_L_00380024-01
1 69203U 26188JE  26070.40835648  .00000000  00000+0  00000-0 0  9997
2 69203  90.0000 276.0000 0000000   0.0000 276.0000 13.16009679    14
CTC1_L_00380024-02
1 69204U 24262YX  26070.40835648  .00000000  00000+0  00000-0 0  9999
2 69204  90.0000 276.0000 0000000   0.0000   6.0000 13.16009679    16
CTC1_L_00380024-03
1 69205U 25641ZA  26070.40835648  .00000000  00000+0  00000-0 0  9992
2 69205  90.0000 276.0000 0000000   0.0000  96.0000 13.16009679    16
CTC1_L_00380024-04
1 69206U 24758CM  26070.40835648  .00000000  00000+0  00000-0 0  9991
2 69206  90.0000 276.0000 0000000   0.0000 186.0000 13.16009679    17
CTC1_L_00380025-01
1 69207U 23809XI  26070.40835648  .00000000  00000+0  00000-0 0  9998
2 69207  90.0000 288.0000 0000000   0.0000 288.0000 13.16009679    14
CTC1_L_00380025-02
1 69208U 22749LD  26070.40835648  .00000000  00000+0  00000-0 0  9991
2 69208  90.0000 288.0000 0000000   0.0000  18.0000 13.16009679    16
CTC1_L_00380025-03
1 69209U 24037QW  26070.40835648  .00000000  00000+0  00000-0 0  9994
2 69209  90.0000 288.0000 0000000   0.0000 108.0000 13.16009679    17
CTC1_L_00380025-04
1 69210U 24189AK  26070.40835648  .00000000  00000+0  00000-0 0  9994
2 69210  90.0000 288.0000 0000000   0.0000 198.0000 13.16009679    18
CTC1_L_00380026-01
1 69211U 23159BR  26070.40835648  .00000000  00000+0  00000-0 0  9991
2 69211  90.0000 300.0000 0000000   0.0000 300.0000 13.16009679    19
CTC1_L_00380026-02
1 69212U 23438BA  26070.40835648  .00000000  00000+0  00000-0 0  9992
2 69212  90.0000 300.0000 0000000   0.0000  30.0000 13.16009679    10
CTC1_L_00380026-03
1 69213U 23640OD  26070.40835648  .00000000  00000+0  00000-0 0  9998
2 69213  90.0000 300.0000 0000000   0.0000 120.0000 13.16009679    11
CTC1_L_00380026-04
1 69214U 24650FM  26070.40835648  .00000000  00000+0  00000-0 0  9991
2 69214  90.0000 300.0000 0000000   0.0000 210.0000 13.16009679    12
CTC1_L_00380027-01
1 69215U 23774MS  26070.40835648  .00000000  00000+0  00000-0 0  9998
2 69215  90.0000 312.0000 0000000   0.0000 312.0000 13.16009679    19
CTC1_L_00380027-02
1 69216U 24389PC  26070.40835648  .00000000  00000+0  00000-0 0  9992
2 69216  90.0000 312.0000 0000000   0.0000  42.0000 13.16009679    10
CTC1_L_00380027-03
1 69217U 22527OV  26070.40835648  .00000000  00000+0  00000-0 0  9995
2 69217  90.0000 312.0000 0000000   0.0000 132.0000 13.16009679    11
CTC1_L_00380027-04
1 69218U 25540DV  26070.40835648  .00000000  00000+0  00000-0 0  9994
2 69218  90.0000 312.0000 0000000   0.0000 222.0000 13.16009679    12
CTC1_L_00380028-01
1 69219U 24742MJ  26070.40835648  .00000000  00000+0  00000-0 0  9998
2 69219  90.0000 324.0000 0000000   0.0000 324.0000 13.16009679    19
CTC1_L_00380028-02
1 69220U 26327EB  26070.40835648  .00000000  00000+0  00000-0 0  9991
2 69220  90.0000 324.0000 0000000   0.0000  54.0000 13.16009679    11
CTC1_L_00380028-03
1 69221U 25720AL  26070.40835648  .00000000  00000+0  00000-0 0  9998
2 69221  90.0000 324.0000 0000000   0.0000 144.0000 13.16009679    12
CTC1_L_00380028-04
1 69222U 23631JI  26070.40835648  .00000000  00000+0  00000-0 0  9998
2 69222  90.0000 324.0000 0000000   0.0000 234.0000 13.16009679    13
CTC1_L_00380029-01
1 69223U 23597TQ  26070.40835648  .00000000  00000+0  00000-0 0  9990
2 69223  90.0000 336.0000 0000000   0.0000 336.0000 13.16009679    10
CTC1_L_00380029-02
1 69224U 23375VF  26070.40835648  .00000000  00000+0  00000-0 0  9995
2 69224  90.0000 336.0000 0000000   0.0000  66.0000 13.16009679    11
CTC1_L_00380029-03
1 69225U 23102FD  26070.40835648  .00000000  00000+0  00000-0 0  9994
2 69225  90.0000 336.0000 0000000   0.0000 156.0000 13.16009679    12
CTC1_L_00380029-04
1 69226U 25735QS  26070.40835648  .00000000  00000+0  00000-0 0  9999
2 69226  90.0000 336.0000 0000000   0.0000 246.0000 13.16009679    13
CTC1_L_00380030-01
1 69227U 24202BK  26070.40835648  .00000000  00000+0  00000-0 0  9998
2 69227  90.0000 348.0000 0000000   0.0000 348.0000 13.16009679    10
CTC1_L_00380030-02
1 69228U 22944CA  26070.40835648  .00000000  00000+0  00000-0 0  9990
2 69228  90.0000 348.0000 0000000   0.0000  78.0000 13.16009679    11
CTC1_L_00380030-03
1 69229U 23843EG  26070.40835648  .00000000  00000+0  00000-0 0  9990
2 69229  90.0000 348.0000 0000000   0.0000 168.0000 13.16009679    12
CTC1_L_00380030-04
1 69230U 25987FZ  26070.40835648  .00000000  00000+0  00000-0 0  9993
2 69230  90.0000 348.0000 0000000   0.0000 258.0000 13.16009679    14
